IRIDIUM 136             
1 42962U 17061H   24118.89267103  .00000427  00000+0  14548-3 0  9997
2 42962  86.3999 351.3489 0002473  86.4279 273.7200 14.34217727342990
